[
  {
    "OBJECT_NAME": "UMKA 1 (RS40S)",
    "OBJECT_ID": "2023-091G",
    "EPOCH": "2025-05-24T21:21:47.089440",
    "MEAN_MOTION": 15.15175907,
    "ECCENTRICITY": 0.0015129,
    "INCLINATION": 97.5594,
    "RA_OF_ASC_NODE": 200.3549,
    "ARG_OF_PERICENTER": 35.1584,
    "MEAN_ANOMALY": 325.0643,
    "EPHEMERIS_TYPE": 0,
    "CLASSIFICATION_TYPE": "U",
    "NORAD_CAT_ID": 57172,
    "ELEMENT_SET_NO": 999,
    "REV_AT_EPOCH": 10510,
    "BSTAR": 0.00026658,
    "MEAN_MOTION_DOT": 4.948e-05,
    "MEAN_MOTION_DDOT": 0
  },
  {
    "OBJECT_NAME": "CUBESX-HSE 3 (RS42S)",
    "OBJECT_ID": "2023-091N",
    "EPOCH": "2025-05-24T20:38:56.978016",
    "MEAN_MOTION": 15.20434471,
    "ECCENTRICITY": 0.0013853,
    "INCLINATION": 97.5624,
    "RA_OF_ASC_NODE": 202.5505,
    "ARG_OF_PERICENTER": 25.0195,
    "MEAN_ANOMALY": 335.1708,
    "EPHEMERIS_TYPE": 0,
    "CLASSIFICATION_TYPE": "U",
    "NORAD_CAT_ID": 57178,
    "ELEMENT_SET_NO": 999,
    "REV_AT_EPOCH": 10522,
    "BSTAR": 0.00035697,
    "MEAN_MOTION_DOT": 7.737e-05,
    "MEAN_MOTION_DDOT": 0
  },
  {
    "OBJECT_NAME": "MONITOR-3 (RS58S)",
    "OBJECT_ID": "2023-091Q",
    "EPOCH": "2025-05-24T20:53:36.213792",
    "MEAN_MOTION": 15.18818969,
    "ECCENTRICITY": 0.001458,
    "INCLINATION": 97.5618,
    "RA_OF_ASC_NODE": 201.8678,
    "ARG_OF_PERICENTER": 26.9982,
    "MEAN_ANOMALY": 333.2007,
    "EPHEMERIS_TYPE": 0,
    "CLASSIFICATION_TYPE": "U",
    "NORAD_CAT_ID": 57180,
    "ELEMENT_SET_NO": 999,
    "REV_AT_EPOCH": 10518,
    "BSTAR": 0.00031908,
    "MEAN_MOTION_DOT": 6.591e-05,
    "MEAN_MOTION_DDOT": 0
  },
  {
    "OBJECT_NAME": "MONITOR-4 (RS57S)",
    "OBJECT_ID": "2023-091S",
    "EPOCH": "2025-05-24T17:39:23.741280",
    "MEAN_MOTION": 15.18863199,
    "ECCENTRICITY": 0.0014636,
    "INCLINATION": 97.5614,
    "RA_OF_ASC_NODE": 201.6908,
    "ARG_OF_PERICENTER": 28.0376,
    "MEAN_ANOMALY": 332.1643,
    "EPHEMERIS_TYPE": 0,
    "CLASSIFICATION_TYPE": "U",
    "NORAD_CAT_ID": 57182,
    "ELEMENT_SET_NO": 999,
    "REV_AT_EPOCH": 10516,
    "BSTAR": 0.00030593,
    "MEAN_MOTION_DOT": 6.325e-05,
    "MEAN_MOTION_DDOT": 0
  },
  {
    "OBJECT_NAME": "MONITOR-2 (RS39S)",
    "OBJECT_ID": "2023-091U",
    "EPOCH": "2025-05-24T19:33:39.110400",
    "MEAN_MOTION": 15.14230893,
    "ECCENTRICITY": 0.0012909,
    "INCLINATION": 97.5622,
    "RA_OF_ASC_NODE": 200.5711,
    "ARG_OF_PERICENTER": 27.0262,
    "MEAN_ANOMALY": 333.1639,
    "EPHEMERIS_TYPE": 0,
    "CLASSIFICATION_TYPE": "U",
    "NORAD_CAT_ID": 57184,
    "ELEMENT_SET_NO": 999,
    "REV_AT_EPOCH": 10509,
    "BSTAR": 0.00022186,
    "MEAN_MOTION_DOT": 3.994e-05,
    "MEAN_MOTION_DDOT": 0
  },
  {
    "OBJECT_NAME": "SVYATOBOR 1 (RS60S)",
    "OBJECT_ID": "2023-091X",
    "EPOCH": "2025-05-24T20:06:02.833920",
    "MEAN_MOTION": 15.18698694,
    "ECCENTRICITY": 0.0011301,
    "INCLINATION": 97.5623,
    "RA_OF_ASC_NODE": 202.5433,
    "ARG_OF_PERICENTER": 20.3084,
    "MEAN_ANOMALY": 339.8597,
    "EPHEMERIS_TYPE": 0,
    "CLASSIFICATION_TYPE": "U",
    "NORAD_CAT_ID": 57187,
    "ELEMENT_SET_NO": 999,
    "REV_AT_EPOCH": 10522,
    "BSTAR": 0.00032521,
    "MEAN_MOTION_DOT": 6.688e-05,
    "MEAN_MOTION_DDOT": 0
  },
  {
    "OBJECT_NAME": "VIZARD-METEO (RS38S)",
    "OBJECT_ID": "2023-091Z",
    "EPOCH": "2025-05-24T19:58:20.338176",
    "MEAN_MOTION": 15.23157113,
    "ECCENTRICITY": 0.0009429,
    "INCLINATION": 97.5612,
    "RA_OF_ASC_NODE": 204.3155,
    "ARG_OF_PERICENTER": 14.8858,
    "MEAN_ANOMALY": 345.2654,
    "EPHEMERIS_TYPE": 0,
    "CLASSIFICATION_TYPE": "U",
    "NORAD_CAT_ID": 57189,
    "ELEMENT_SET_NO": 999,
    "REV_AT_EPOCH": 10534,
    "BSTAR": 0.00040633,
    "MEAN_MOTION_DOT": 9.542e-05,
    "MEAN_MOTION_DDOT": 0
  },
  {
    "OBJECT_NAME": "NANOZOND 1 (RS49S)",
    "OBJECT_ID": "2023-091AA",
    "EPOCH": "2025-05-24T19:29:52.921248",
    "MEAN_MOTION": 15.34864255,
    "ECCENTRICITY": 0.0005788,
    "INCLINATION": 97.5567,
    "RA_OF_ASC_NODE": 207.9215,
    "ARG_OF_PERICENTER": 13.241,
    "MEAN_ANOMALY": 346.8984,
    "EPHEMERIS_TYPE": 0,
    "CLASSIFICATION_TYPE": "U",
    "NORAD_CAT_ID": 57190,
    "ELEMENT_SET_NO": 999,
    "REV_AT_EPOCH": 10559,
    "BSTAR": 0.00061398,
    "MEAN_MOTION_DOT": 0.00020717,
    "MEAN_MOTION_DDOT": 0
  },
  {
    "OBJECT_NAME": "POLYTECH-UNIVERSE 3 (RS46S)",
    "OBJECT_ID": "2023-091AB",
    "EPOCH": "2025-05-24T19:34:52.075200",
    "MEAN_MOTION": 15.1430614,
    "ECCENTRICITY": 0.0018038,
    "INCLINATION": 97.5592,
    "RA_OF_ASC_NODE": 200.1226,
    "ARG_OF_PERICENTER": 40.8903,
    "MEAN_ANOMALY": 319.3678,
    "EPHEMERIS_TYPE": 0,
    "CLASSIFICATION_TYPE": "U",
    "NORAD_CAT_ID": 57191,
    "ELEMENT_SET_NO": 999,
    "REV_AT_EPOCH": 10508,
    "BSTAR": 0.00023067,
    "MEAN_MOTION_DOT": 4.173e-05,
    "MEAN_MOTION_DDOT": 0
  },
  {
    "OBJECT_NAME": "UTMN 2 (RS27S)",
    "OBJECT_ID": "2023-091AP",
    "EPOCH": "2025-05-24T20:31:35.702976",
    "MEAN_MOTION": 15.21448477,
    "ECCENTRICITY": 0.001007,
    "INCLINATION": 97.5612,
    "RA_OF_ASC_NODE": 203.667,
    "ARG_OF_PERICENTER": 16.1457,
    "MEAN_ANOMALY": 344.0098,
    "EPHEMERIS_TYPE": 0,
    "CLASSIFICATION_TYPE": "U",
    "NORAD_CAT_ID": 57203,
    "ELEMENT_SET_NO": 999,
    "REV_AT_EPOCH": 10530,
    "BSTAR": 0.00035626,
    "MEAN_MOTION_DOT": 7.945e-05,
    "MEAN_MOTION_DDOT": 0
  },
  {
    "OBJECT_NAME": "ARCCUBE 1 (RS25S)",
    "OBJECT_ID": "2023-091AR",
    "EPOCH": "2025-05-24T20:18:59.919840",
    "MEAN_MOTION": 15.43957583,
    "ECCENTRICITY": 0.0004101,
    "INCLINATION": 97.5483,
    "RA_OF_ASC_NODE": 209.8664,
    "ARG_OF_PERICENTER": 5.0692,
    "MEAN_ANOMALY": 355.0596,
    "EPHEMERIS_TYPE": 0,
    "CLASSIFICATION_TYPE": "U",
    "NORAD_CAT_ID": 57205,
    "ELEMENT_SET_NO": 999,
    "REV_AT_EPOCH": 10574,
    "BSTAR": 0.00082864,
    "MEAN_MOTION_DOT": 0.00037766,
    "MEAN_MOTION_DDOT": 0
  },
  {
    "OBJECT_NAME": "KUZGTU 1 (RS47S)",
    "OBJECT_ID": "2023-091AV",
    "EPOCH": "2025-05-24T21:08:01.132224",
    "MEAN_MOTION": 15.19841041,
    "ECCENTRICITY": 0.001399,
    "INCLINATION": 97.56,
    "RA_OF_ASC_NODE": 202.1439,
    "ARG_OF_PERICENTER": 26.9245,
    "MEAN_ANOMALY": 333.2713,
    "EPHEMERIS_TYPE": 0,
    "CLASSIFICATION_TYPE": "U",
    "NORAD_CAT_ID": 57217,
    "ELEMENT_SET_NO": 999,
    "REV_AT_EPOCH": 10521,
    "BSTAR": 0.00035275,
    "MEAN_MOTION_DOT": 7.513e-05,
    "MEAN_MOTION_DDOT": 0
  },
  {
    "OBJECT_NAME": "SONATE-2",
    "OBJECT_ID": "2024-043Q",
    "EPOCH": "2025-05-24T07:59:40.230528",
    "MEAN_MOTION": 15.35214318,
    "ECCENTRICITY": 0.0011914,
    "INCLINATION": 97.5109,
    "RA_OF_ASC_NODE": 275.1941,
    "ARG_OF_PERICENTER": 167.3081,
    "MEAN_ANOMALY": 192.8464,
    "EPHEMERIS_TYPE": 0,
    "CLASSIFICATION_TYPE": "U",
    "NORAD_CAT_ID": 59112,
    "ELEMENT_SET_NO": 999,
    "REV_AT_EPOCH": 6784,
    "BSTAR": 0.00038645,
    "MEAN_MOTION_DOT": 0.00013165,
    "MEAN_MOTION_DDOT": 0
  },
  {
    "OBJECT_NAME": "MESAT1",
    "OBJECT_ID": "2024-125G",
    "EPOCH": "2025-05-24T13:06:50.707008",
    "MEAN_MOTION": 15.35529361,
    "ECCENTRICITY": 0.0018886,
    "INCLINATION": 97.2815,
    "RA_OF_ASC_NODE": 356.3506,
    "ARG_OF_PERICENTER": 189.9742,
    "MEAN_ANOMALY": 170.113,
    "EPHEMERIS_TYPE": 0,
    "CLASSIFICATION_TYPE": "U",
    "NORAD_CAT_ID": 60209,
    "ELEMENT_SET_NO": 999,
    "REV_AT_EPOCH": 4949,
    "BSTAR": 0.0004208,
    "MEAN_MOTION_DOT": 0.00014545,
    "MEAN_MOTION_DDOT": 0
  }
]