UMKA 1 (RS40S)          
1 57172U 23091G   25144.89012835  .00004948  00000+0  26658-3 0  9993
2 57172  97.5594 200.3549 0015129  35.1584 325.0643 15.15175907105101
CUBESX-HSE 3 (RS42S)    
1 57178U 23091N   25144.86038169  .00007737  00000+0  35697-3 0  9996
2 57178  97.5624 202.5505 0013853  25.0195 335.1708 15.20434471105222
MONITOR-3 (RS58S)       
1 57180U 23091Q   25144.87055803  .00006591  00000+0  31908-3 0  9992
2 57180  97.5618 201.8678 0014580  26.9982 333.2007 15.18818969105184
MONITOR-4 (RS57S)       
1 57182U 23091S   25144.73569145  .00006325  00000+0  30593-3 0  9992
2 57182  97.5614 201.6908 0014636  28.0376 332.1643 15.18863199105165
MONITOR-2 (RS39S)       
1 57184U 23091U   25144.81503600  .00003994  00000+0  22186-3 0  9995
2 57184  97.5622 200.5711 0012909  27.0262 333.1639 15.14230893105093
SVYATOBOR 1 (RS60S)     
1 57187U 23091X   25144.83753280  .00006688  00000+0  32521-3 0  9998
2 57187  97.5623 202.5433 0011301  20.3084 339.8597 15.18698694105225
VIZARD-METEO (RS38S)    
1 57189U 23091Z   25144.83217984  .00009542  00000+0  40633-3 0  9991
2 57189  97.5612 204.3155 0009429  14.8858 345.2654 15.23157113105341
NANOZOND 1 (RS49S)      
1 57190U 23091AA  25144.81241807  .00020717  00000+0  61398-3 0  9990
2 57190  97.5567 207.9215 0005788  13.2410 346.8984 15.34864255105593
POLYTECH-UNIVERSE 3 (R*)
1 57191U 23091AB  25144.81588050  .00004173  00000+0  23067-3 0  9994
2 57191  97.5592 200.1226 0018038  40.8903 319.3678 15.14306140105085
UTMN 2 (RS27S)          
1 57203U 23091AP  25144.85527434  .00007945  00000+0  35626-3 0  9995
2 57203  97.5612 203.6670 0010070  16.1457 344.0098 15.21448477105305
ARCCUBE 1 (RS25S)       
1 57205U 23091AR  25144.84652685  .00037766  00000+0  82864-3 0  9993
2 57205  97.5483 209.8664 0004101   5.0692 355.0596 15.43957583105740
KUZGTU 1 (RS47S)        
1 57217U 23091AV  25144.88056866  .00007513  00000+0  35275-3 0  9990
2 57217  97.5600 202.1439 0013990  26.9245 333.2713 15.19841041105217
SONATE-2                
1 59112U 24043Q   25144.33310452  .00013165  00000+0  38645-3 0  9992
2 59112  97.5109 275.1941 0011914 167.3081 192.8464 15.35214318 67844
MESAT1                  
1 60209U 24125G   25144.54642022  .00014545  00000+0  42080-3 0  9997
2 60209  97.2815 356.3506 0018886 189.9742 170.1130 15.35529361 49499
